ALOS-2                  
1 39766U 14029A   26163.26960718  .00000644  00000+0  93056-4 0  9994
2 39766  97.9212 260.5034 0001625  91.0171 269.1227 14.79471669650853
KAZEOSAT 2              
1 40010U 14033A   26163.31272846  .00000814  00000+0  10018-3 0  9992
2 40010  97.5414   3.1826 0008278 346.6020  13.4975 14.85464649648236
HODOYOSHI-4             
1 40011U 14033B   26163.26001675  .00001112  00000+0  12599-3 0  9995
2 40011  97.5454 348.3206 0022822 325.3126  34.6602 14.88115688648072
DEIMOS-2                
1 40013U 14033D   26163.29298201  .00000857  00000+0  86156-4 0  9999
2 40013  97.5847  37.9541 0001914  53.1157 307.0239 14.93714030636995
HODOYOSHI-3             
1 40015U 14033F   26163.20008879  .00000979  00000+0  11880-3 0  9998
2 40015  97.6412 326.4415 0033150  13.7167 346.4942 14.85379079646880
SPOT 7                  
1 40053U 14034A   26163.31885104  .00000199  00000+0  49875-4 0  9997
2 40053  98.0633 225.9356 0001170  88.4781 271.6554 14.60953670636422
SKYSAT-B                
1 40072U 14037D   26163.28356725  .00001251  00000+0  14294-3 0  9995
2 40072  98.3838 121.9690 0004356 302.8889  57.1906 14.88016112645238
WORLDVIEW-3 (WV-3)      
1 40115U 14048A   26163.24858883  .00000798  00000+0  99741-4 0  9999
2 40115  97.8566 238.1496 0001374  32.6994 327.4306 14.85014269641179
GAOFEN-2                
1 40118U 14049A   26163.31147074 -.00000200  00000+0 -18982-4 0  9992
2 40118  98.0113 227.5231 0005941 246.3656 113.6932 14.80891174638512
YAOGAN-21               
1 40143U 14053A   26163.18015911  .00006828  00000+0  26547-3 0  9999
2 40143  97.1483 203.6310 0009871 108.1990 252.0325 15.26299913654195
YAOGAN-22               
1 40275U 14063A   26163.24236943 -.00000045  00000+0  59668-5 0  9991
2 40275 100.7717 314.4336 0006231 196.4776 163.6134 13.15530927559165
ASNARO                  
1 40298U 14070A   26163.28583281  .00007433  00000+0  35447-3 0  9992
2 40298  97.3455 239.5325 0005167 181.7392 178.3826 15.19362267643265
YAOGAN-24               
1 40310U 14072A   26163.33739769  .00000484  00000+0  77580-4 0  9993
2 40310  98.1476 300.6345 0012562 280.7224  79.2570 14.76216135623004
CBERS 4                 
1 40336U 14079A   26163.29747813 -.00000031  00000+0  38133-5 0  9993
2 40336  98.3538 220.2825 0001949  69.1149 291.0246 14.35507309603255
YAOGAN-26               
1 40362U 14088A   26163.28308713  .00026354  00000+0  51951-3 0  9999
2 40362  97.0639 163.6077 0006321  77.7134 282.4824 15.47159436636945
SMAP                    
1 40376U 15003A   26163.29354214  .00000418  00000+0  89976-4 0  9992
2 40376  98.1276 170.4574 0001289  93.9524 266.1826 14.63362620606900
KOMPSAT-3A              
1 40536U 15014A   26163.28327244  .00024795  00000+0  36210-3 0  9990
2 40536  97.6880 154.2872 0056111 192.2717 167.7173 15.53770945621052
SENTINEL-2A             
1 40697U 15028A   26163.24964574 -.00000090  00000+0 -17613-4 0  9993
2 40697  98.5685 238.1711 0001095  89.1185 271.0123 14.30813677573022
GAOFEN-8                
1 40701U 15030A   26163.29769819  .00014075  00000+0  29229-3 0  9993
2 40701  97.6907 356.3748 0008341 204.2157 155.8700 15.45770053610690
CARBONITE 1 (CBNT-1)    
1 40718U 15032D   26163.25896108  .00001807  00000+0  22519-3 0  9995
2 40718  97.6507 341.5322 0013403 315.6744  44.3396 14.83573340588612
YAOGAN-27               
1 40878U 15040A   26163.23924727  .00000571  00000+0  16156-2 0  9994
2 40878 100.1149 149.8364 0007537 222.5741 137.4789 13.16071684517015
GAOFEN-9 01             
1 40894U 15047A   26163.33911719  .00000948  00000+0  12253-3 0  9990
2 40894  97.6277 199.2541 0028037 153.1930 207.0740 14.82875134579473
YAOGAN-28               
1 41026U 15064A   26163.27822758  .00007918  00000+0  29781-3 0  9992
2 41026  97.3061 301.6403 0010173 200.7444 159.3384 15.27361210589936
YAOGAN-29               
1 41038U 15069A   26163.25263557  .00000771  00000+0  10129-3 0  9990
2 41038  98.0035 191.8778 0002832  63.2702 296.8801 14.83083103569891
KENT RIDGE 1            
1 41167U 15077B   26162.07320463  .00003829  00000+0  12612-3 0  9997
2 41167  14.9802 311.4591 0008233 152.2159 207.8603 15.23095182580162
GAOFEN-4                
1 41194U 15083A   26163.00054441 -.00000319  00000+0  00000+0 0  9994
2 41194   0.3424  83.8503 0004280 111.9742 170.4258  1.00271727 38476
JASON-3                 
1 41240U 16002A   26163.26476981 -.00000051  00000+0  42882-4 0  9995
2 41240  66.0398 136.1838 0008563 273.0040  86.9999 12.87627974486611
SENTINEL-3A             
1 41335U 16011A   26163.23734139  .00000094  00000+0  56684-4 0  9990
2 41335  98.6249 230.6919 0001373 103.3738 256.7596 14.26738666537357
ZIYUAN 3-02 (ZY 3-02)   
1 41556U 16033A   26163.25706363  .00005004  00000+0  22555-3 0  9994
2 41556  97.3841 239.1255 0011370 309.5616  50.4615 15.21434881557234
CARTOSAT-2C             
1 41599U 16040A   26163.25246745  .00004702  00000+0  22589-3 0  9993
2 41599  97.4488 223.2983 0010143 147.0136 213.1733 15.19278419552964
