OBJECT_NAME,OBJECT_ID,EPOCH,MEAN_MOTION,ECCENTRICITY,INCLINATION,RA_OF_ASC_NODE,ARG_OF_PERICENTER,MEAN_ANOMALY,EPHEMERIS_TYPE,CLASSIFICATION_TYPE,NORAD_CAT_ID,ELEMENT_SET_NO,REV_AT_EPOCH,BSTAR,MEAN_MOTION_DOT,MEAN_MOTION_DDOT
ALOS-2,2014-029A,2026-06-12T06:28:14.060352,14.79471669,.00016257,97.9212,260.5034,91.0171,269.1227,0,U,39766,999,65085,.93056179E-4,.644E-5,0
KAZEOSAT 2,2014-033A,2026-06-12T07:30:19.738944,14.85464649,.0008278,97.5414,3.1826,346.6020,13.4975,0,U,40010,999,64823,.1001775E-3,.814E-5,0
HODOYOSHI-4,2014-033B,2026-06-12T06:14:25.447200,14.88115688,.00228225,97.5454,348.3206,325.3126,34.6602,0,U,40011,999,64807,.12598794E-3,.1112E-4,0
DEIMOS-2,2014-033D,2026-06-12T07:01:53.645664,14.93714030,.00019149,97.5847,37.9541,53.1157,307.0239,0,U,40013,999,63699,.86156018E-4,.857E-5,0
HODOYOSHI-3,2014-033F,2026-06-12T04:48:07.671456,14.85379079,.00331509,97.6412,326.4415,13.7167,346.4942,0,U,40015,999,64688,.11879768E-3,.979E-5,0
SPOT 7,2014-034A,2026-06-12T07:39:08.729856,14.60953670,.00011701,98.0633,225.9356,88.4781,271.6554,0,U,40053,999,63642,.49874549E-4,.199E-5,0
SKYSAT-B,2014-037D,2026-06-12T06:48:20.210400,14.88016112,.00043564,98.3838,121.9690,302.8889,57.1906,0,U,40072,999,64523,.14293504E-3,.1251E-4,0
WORLDVIEW-3 (WV-3),2014-048A,2026-06-12T05:57:58.074912,14.85014269,.00013747,97.8566,238.1496,32.6994,327.4306,0,U,40115,999,64117,.99740962E-4,.798E-5,0
GAOFEN-2,2014-049A,2026-06-12T07:28:31.071936,14.80891174,.00059418,98.0113,227.5231,246.3656,113.6932,0,U,40118,999,63851,-.18981681E-4,-.2E-5,0
YAOGAN-21,2014-053A,2026-06-12T04:19:25.747104,15.26299913,.00098715,97.1483,203.6310,108.1990,252.0325,0,U,40143,999,65419,.26547112E-3,.6828E-4,0
YAOGAN-22,2014-063A,2026-06-12T05:49:00.718752,13.15530927,.00062311,100.7717,314.4336,196.4776,163.6134,0,U,40275,999,55916,.5966754E-5,-.45E-6,0
ASNARO,2014-070A,2026-06-12T06:51:35.954784,15.19362267,.00051676,97.3455,239.5325,181.7392,178.3826,0,U,40298,999,64326,.35447277E-3,.7433E-4,0
YAOGAN-24,2014-072A,2026-06-12T08:05:51.160416,14.76216135,.00125626,98.1476,300.6345,280.7224,79.2570,0,U,40310,999,62300,.77579674E-4,.484E-5,0
CBERS 4,2014-079A,2026-06-12T07:08:22.110432,14.35507309,.00019492,98.3538,220.2825,69.1149,291.0246,0,U,40336,999,60325,.381328E-5,-.31E-6,0
YAOGAN-26,2014-088A,2026-06-12T06:47:38.728032,15.47159436,.00063218,97.0639,163.6077,77.7134,282.4824,0,U,40362,999,63694,.51950665E-3,.26354E-3,0
SMAP,2015-003A,2026-06-12T07:02:42.040896,14.63362620,.00012896,98.1276,170.4574,93.9524,266.1826,0,U,40376,999,60690,.89976298E-4,.418E-5,0
KOMPSAT-3A,2015-014A,2026-06-12T06:47:54.738816,15.53770945,.00561113,97.6880,154.2872,192.2717,167.7173,0,U,40536,999,62105,.36210368E-3,.24795E-3,0
SENTINEL-2A,2015-028A,2026-06-12T05:59:29.391936,14.30813677,.00010954,98.5685,238.1711,89.1185,271.0123,0,U,40697,999,57302,-.17613253E-4,-.9E-6,0
GAOFEN-8,2015-030A,2026-06-12T07:08:41.123616,15.45770053,.00083411,97.6907,356.3748,204.2157,155.8700,0,U,40701,999,61069,.29229306E-3,.14075E-3,0
CARBONITE 1 (CBNT-1),2015-032D,2026-06-12T06:12:54.237312,14.83573340,.00134037,97.6507,341.5322,315.6744,44.3396,0,U,40718,999,58861,.22518598E-3,.1807E-4,0
YAOGAN-27,2015-040A,2026-06-12T05:44:30.964128,13.16071684,.0007537,100.1149,149.8364,222.5741,137.4789,0,U,40878,999,51701,.16155785E-2,.571E-5,0
GAOFEN-9 01,2015-047A,2026-06-12T08:08:19.725216,14.82875134,.0028037,97.6277,199.2541,153.1930,207.0740,0,U,40894,999,57947,.12252829E-3,.948E-5,0
YAOGAN-28,2015-064A,2026-06-12T06:40:38.862912,15.27361210,.00101732,97.3061,301.6403,200.7444,159.3384,0,U,41026,999,58993,.29780811E-3,.7918E-4,0
YAOGAN-29,2015-069A,2026-06-12T06:03:47.713248,14.83083103,.00028321,98.0035,191.8778,63.2702,296.8801,0,U,41038,999,56989,.10129344E-3,.771E-5,0
KENT RIDGE 1,2015-077B,2026-06-11T01:45:24.880032,15.23095182,.00082332,14.9802,311.4591,152.2159,207.8603,0,U,41167,999,58016,.12611853E-3,.3829E-4,0
GAOFEN-4,2015-083A,2026-06-12T00:00:47.037024,1.00271727,.000428,0.3424,83.8503,111.9742,170.4258,0,U,41194,999,3847,0,-.319E-5,0
JASON-3,2016-002A,2026-06-12T06:21:16.111584,12.87627974,.00085635,66.0398,136.1838,273.0040,86.9999,0,U,41240,999,48661,.42881674E-4,-.51E-6,0
SENTINEL-3A,2016-011A,2026-06-12T05:41:46.296096,14.26738666,.00013734,98.6249,230.6919,103.3738,256.7596,0,U,41335,999,53735,.56684099E-4,.94E-6,0
ZIYUAN 3-02 (ZY 3-02),2016-033A,2026-06-12T06:10:10.297632,15.21434881,.00113703,97.3841,239.1255,309.5616,50.4615,0,U,41556,999,55723,.22554791E-3,.5004E-4,0
CARTOSAT-2C,2016-040A,2026-06-12T06:03:33.187680,15.19278419,.0010143,97.4488,223.2983,147.0136,213.1733,0,U,41599,999,55296,.22589031E-3,.4702E-4,0
